IRIDIUM 159             
1 43578U 18061K   26014.78526012  .00000011  00000+0 -32124-5 0  9996
2 43578  86.3989 120.8647 0001882 100.2792 259.8616 14.34217513391393
IRIDIUM 180             
1 43922U 19002A   26015.13359926  .00000040  00000+0  73555-5 0  9997
2 43922  86.3935  57.5746 0002133  96.9854 263.1585 14.34217660367055
IRIDIUM 176             
1 43923U 19002B   26015.09574741  .00000561  00000+0  85136-4 0  9992
2 43923  86.6059  57.5563 0002572  94.7619 265.3892 14.72244173376725
IRIDIUM 168             
1 43924U 19002C   26015.12725495  .00000054  00000+0  12375-4 0  9993
2 43924  86.3933  57.6502 0002259  94.4905 265.6548 14.34216367367032
IRIDIUM 173             
1 43925U 19002D   26015.11456828 -.00000037  00000+0 -20354-4 0  9993
2 43925  86.3933  57.5503 0002245  96.2944 263.8507 14.34215976367019
IRIDIUM 169             
1 43926U 19002E   26015.15999874  .00000200  00000+0  58706-4 0  9993
2 43926  86.4207  89.1918 0003200  96.9292 263.2270 14.38608567368222
IRIDIUM 172             
1 43927U 19002F   26015.10822859  .00000038  00000+0  66402-5 0  9999
2 43927  86.3936  57.5608 0002065  97.5621 262.5809 14.34217129367020
IRIDIUM 175             
1 43928U 19002G   26015.02309563  .00000663  00000+0  10110-3 0  9990
2 43928  86.1509 358.1140 0002459  61.8423 298.3042 14.72251075376708
